[{"OBJECT_NAME":"RANGE-A","OBJECT_ID":"2018-099R","EPOCH":"2026-03-09T16:56:29.908608","MEAN_MOTION":15.1245864,"ECCENTRICITY":0.00096737,"INCLINATION":97.4107,"RA_OF_ASC_NODE":114.1927,"ARG_OF_PERICENTER":340.4473,"MEAN_ANOMALY":19.6386,"EPHEMERIS_TYPE":0,"CLASSIFICATION_TYPE":"U","NORAD_CAT_ID":43773,"ELEMENT_SET_NO":999,"REV_AT_EPOCH":39745,"BSTAR":0.00032165687,"MEAN_MOTION_DOT":5.536e-5,"MEAN_MOTION_DDOT":0},{"OBJECT_NAME":"STARLINK-4750","OBJECT_ID":"2022-114Z","EPOCH":"2026-03-09T21:55:59.618208","MEAN_MOTION":15.08845466,"ECCENTRICITY":0.00013673,"INCLINATION":53.2168,"RA_OF_ASC_NODE":293.239,"ARG_OF_PERICENTER":110.8884,"MEAN_ANOMALY":249.2255,"EPHEMERIS_TYPE":0,"CLASSIFICATION_TYPE":"U","NORAD_CAT_ID":53841,"ELEMENT_SET_NO":999,"REV_AT_EPOCH":19300,"BSTAR":-3.8925168e-5,"MEAN_MOTION_DOT":-9.07e-6,"MEAN_MOTION_DDOT":0}]
